[{"OBJECT_NAME":"NINGXIA-1 4","OBJECT_ID":"2019-076D","EPOCH":"2026-03-09T22:43:42.811392","MEAN_MOTION":14.02017306,"ECCENTRICITY":0.00127515,"INCLINATION":45.0076,"RA_OF_ASC_NODE":263.3114,"ARG_OF_PERICENTER":13.0472,"MEAN_ANOMALY":347.069,"EPHEMERIS_TYPE":0,"CLASSIFICATION_TYPE":"U","NORAD_CAT_ID":44782,"ELEMENT_SET_NO":999,"REV_AT_EPOCH":32389,"BSTAR":0.00011688913,"MEAN_MOTION_DOT":5.0e-7,"MEAN_MOTION_DDOT":0},{"OBJECT_NAME":"UNKNOWN","OBJECT_ID":"","EPOCH":"2026-03-06T19:54:58.792896","MEAN_MOTION":13.98221915,"ECCENTRICITY":0.0084639,"INCLINATION":98.8956,"RA_OF_ASC_NODE":83.3544,"ARG_OF_PERICENTER":106.1725,"MEAN_ANOMALY":254.8774,"EPHEMERIS_TYPE":0,"CLASSIFICATION_TYPE":"U","NORAD_CAT_ID":82369,"ELEMENT_SET_NO":999,"REV_AT_EPOCH":56892,"BSTAR":0.0004789,"MEAN_MOTION_DOT":6.62e-6,"MEAN_MOTION_DDOT":0}]
